C/2019 O2 (PANSTARRS),e,93.3044,48.2613,129.5810,58.69261,0.0021919,0.83505141,1.5537,03/15.0/2025,2000,g  5.0,4.0
# From MPEC 2025-CE3
C/2019 O3 (Palomar),h,03/08.7459/2021,89.7986,300.4726,60.1091,1.003098,8.820928,2000,3.5,4.0
# From MPEC 2021-P47
A/2019 O4,e,115.0185,354.9275,61.8356,33.24907,0.0051408,0.89043008,9.5559,03/15.0/2025,2000,g 15.5,2.0
# From MPEC 2024-EF7
C/2019 Q1 (Lemmon),h,07/22.0449/2020,155.7248,42.4637,56.2585,1.002309,5.003818,2000,8.5,4.0
# From MPC117072
A/2019 Q2,e,158.9818,188.1057,176.5025,58.74457,0.0021890,0.97851973,0.0000,07/23.4097/2019,2000,g 18.0,2.0
# From MPC117072
P/2019 S2 (PANSTARRS),e,10.4636,93.1802,216.9690,4.747094,0.0952933,0.20466987,211.3632,03/15.0/2025,2000,g 13.5,4.0
# From MPEC 2022-CN4
P/2019 S3 (PANSTARRS),e,8.6938,150.1429,213.0939,3.414594,0.1562052,0.47079056,316.3937,03/15.0/2025,2000,g 18.3,4.0
# From MPEC 2021-S45
C/2019 S4 (Lemmon),e,92.1029,63.1574,71.3720,247.3653,0.0002533,0.98609463,0.0000,04/09.1935/2020,2000,g 11.0,4.0
# From MPEC 2023-N01
A/2019 T1,e,120.8305,6.9341,90.9972,38.78929,0.0040798,0.88977447,6.2012,03/15.0/2025,2000,g 13.0,2.0
# From MPEC 2023-R20
C/2019 T2 (Lemmon),e,111.3855,155.6556,239.3957,3874,0.0000041,0.99931757,0.0000,04/22.6075/2021,2000,g  9.0,4.0
# From MPEC 2023-UR6
C/2019 T3 (ATLAS),e,121.8684,139.5407,112.4855,4196,0.0000036,0.99858103,0.0000,03/04.6122/2021,2000,g  6.8,4.0
# From MPEC 2025-CE3
C/2019 T4 (ATLAS),e,53.6252,199.9110,351.1083,876.2125,0.0000380,0.99516328,0.0000,06/08.6439/2022,2000,g  5.0,4.0
# From MPEC 2021-P47
P/2019 T5 (ATLAS),e,33.4975,247.6115,189.6154,8.006409,0.0435058,0.80981919,89.2163,03/15.0/2025,2000,g 15.0,4.0
# From MPEC 2021-P47
P/2019 T6 (PANSTARRS),e,18.6998,71.2447,329.0549,5.442261,0.0776310,0.62261084,151.6108,03/15.0/2025,2000,g 15.5,4.0
# From MPC118096
P/2019 U4 (PANSTARRS),e,11.6957,200.0059,181.0771,3.518998,0.1493054,0.47579429,298.8587,03/15.0/2025,2000,g 19.0,4.0
# From MPEC 2025-EG2
C/2019 U5 (PANSTARRS),h,03/29.5127/2023,113.5124,2.6179,181.4518,1.000325,3.623986,2000,4.5,4.0
# From MPEC 2022-H04
C/2019 U6 (Lemmon),e,60.9768,235.7680,329.4394,306.0184,0.0001841,0.99703454,0.0000,06/18.2840/2020,2000,g 10.0,4.0
# From MPEC 2022-N37
C/2019 V1 (Borisov),e,61.9499,83.1479,51.1862,2394,0.0000084,0.99870802,0.0000,07/17.3942/2020,2000,g 11.0,4.0
# From MPEC 2022-L66
P/2019 V2 (Groeller),e,11.8068,189.1471,335.6228,7.494588,0.0480377,0.33176292,77.3407,03/15.0/2025,2000,g 10.0,4.0
# From MPEC 2023-A50
P/2019 W1 (PANSTARRS),e,23.4686,35.3663,18.8740,4.548509,0.1016016,0.26725437,216.8359,03/15.0/2025,2000,g 12.9,4.0
# From MPEC 2021-P47
P/2019 X1 (Pruyne),e,10.2470,43.6785,36.9599,6.178611,0.0641753,0.30391564,132.2317,03/15.0/2025,2000,g 10.4,4.0
# From MPEC 2020-C98
P/2019 X2 (Pan-STARRS),e,15.8949,250.8357,213.5000,3.634443,0.1422484,0.50044223,273.1883,03/15.0/2025,2000,g 18.0,4.0
# From MPC119999
C/2019 Y1 (ATLAS),e,73.3066,31.4955,57.9100,88.04220,0.0011931,0.99061232,0.0000,03/17.0850/2020,2000,g 13.7,4.0
# From MPEC 2025-EG2
P/2019 Y3 (Catalina),e,24.5831,139.3105,2.5513,3.017418,0.1880402,0.69144807,1.9951,03/15.0/2025,2000,g 18.5,4.0
# From MPEC 2024-A43
C/2019 Y4 (ATLAS),e,44.9588,120.7809,177.4178,335.7344,0.0001602,0.99923403,0.0000,05/29.8797/2020,2000,g 11.8,6.0
# From MPEC 2020-L06
C/2019 Y4-A (ATLAS),h,05/29.9283/2020,45.3945,121.1480,177.2503,1.001376,0.255319,2000,11.6,6.0
# From MPEC 2025-CE3
C/2019 Y4-B (ATLAS),e,45.0404,120.8440,177.3769,1451,0.0000178,0.99982295,0.0000,05/29.8869/2020,2000,g 12.1,6.0
# From MPEC 2020-L06
C/2019 Y4-C (ATLAS),h,05/29.8811/2020,45.1780,120.8753,177.2832,1.002104,0.256393,2000,12.7,6.0
# From MPEC 2020-L06
C/2019 Y4-D (ATLAS),e,45.2302,121.2380,177.4253,67.50859,0.0017769,0.99621225,0.0000,05/29.9791/2020,2000,g 12.5,6.0
# From MPEC 2023-A50
C/2019 Y5 (PANSTARRS),e,82.7689,51.7597,303.6549,693.2982,0.0000540,0.99288582,0.0000,08/16.7715/2019,2000,g 11.0,4.0
# From MPEC 2023-A50
A/2020 A1,e,149.0317,119.0755,302.3988,25.47140,0.0076670,0.93442625,14.8086,03/15.0/2025,2000,g 18.0,2.0
# From MPEC 2022-YN2
C/2020 A2 (Iwamoto),e,120.5122,286.1957,68.0129,1002,0.0000311,0.99902721,0.0000,01/07.4077/2020,2000,g 13.5,4.0
# From MPEC 2023-A50
C/2020 A3 (ATLAS),e,146.6247,120.7998,268.2461,6672,0.0000018,0.99913776,0.0000,06/27.2750/2019,2000,g  8.0,4.0
# From MPEC 2022-P91
P/2020 A4 (PANSTARRS-Lemmon),e,25.0008,312.2915,144.8805,8.201325,0.0419641,0.65449169,81.3122,03/15.0/2025,2000,g 15.0,4.0
# From MPEC 2020-N08
A/2020 B1,e,18.5377,309.8197,154.8512,51.98935,0.0026293,0.96655764,5.0073,03/15.0/2025,2000,g 21.0,2.0
# From MPEC 2020-HN5
C/2020 B2 (Lemmon),e,55.7538,354.1982,143.6133,67.81556,0.0017649,0.95936001,3.3070,03/15.0/2025,2000,g 10.0,4.0
# From MPEC 2022-N37
C/2020 B3 (Rankin),e,20.7069,185.7654,324.9108,1019,0.0000303,0.99673385,0.0000,10/20.5528/2019,2000,g 13.0,4.0
# From MPEC 2023-KD6
P/2020 B4 (Sheppard),e,11.6039,185.9556,342.0152,7.971894,0.0437887,0.19274265,53.0826,03/15.0/2025,2000,g 10.5,4.0
# From MPEC 2025-DP4
C/2020 F2 (ATLAS),h,07/12.7637/2022,163.5896,250.3032,48.2458,1.003045,8.813559,2000,4.5,4.0
# From MPEC 2021-O56
C/2020 F3 (NEOWISE),e,129.1367,61.0885,37.3658,398.5445,0.0001239,0.99926252,0.0000,07/04.7667/2020,2000,g  7.5,5.2
# From MPEC 2024-UQ8
C/2020 F5 (MASTER),e,52.2271,350.5320,310.6355,165.3982,0.0004633,0.97384077,0.0000,03/16.3542/2021,2000,g  6.5,3.2
# From MPEC 2020-L06
C/2020 F6 (PANSTARRS),e,174.5839,207.8539,344.3584,349.0171,0.0001512,0.98997685,0.0000,04/10.6519/2020,2000,g 14.5,2.8
# From MPEC 2024-A43
C/2020 F7 (Lemmon),e,93.9772,321.8273,227.9723,562.8869,0.0000738,0.99052341,0.0000,11/13.7641/2021,2000,g  7.0,4.0
# From MPEC 2023-J29
C/2020 F8 (SWAN),h,05/26.0609/2020,110.5507,259.7956,68.0965,1.000078,0.432059,2000,10.0,4.0
# From MPEC 2020-L06
P/2020 G1 (Pimentel),e,18.5094,240.1050,207.6385,3.606801,0.1438868,0.86081091,262.1222,03/15.0/2025,2000,g 17.0,4.0
# From MPEC 2022-YB4
C/2020 H2 (Pruyne),e,124.7833,277.6716,26.5916,178.7908,0.0004123,0.99536572,0.0000,04/27.1286/2020,2000,g 14.0,3.2
# From MPEC 2020-HM1
C/2020 H3 (Wierzchos),p,06/05.7162/2020,62.5292,30.4456,2.300288,270.6227,2000,13.5,4.0
# From MPEC 2020-L06
C/2020 H4 (Leonard),e,84.4945,307.4779,117.5609,47.83674,0.0029789,0.98062995,0.0000,08/29.3454/2020,2000,g 15.0,3.2
# From MPEC 2024-P23
C/2020 H5 (Robinson),e,70.2358,210.6186,326.2675,5602,0.0000024,0.99833366,0.0000,12/09.9321/2020,2000,g  5.0,4.0
# From MPEC 2024-JU4
C/2020 H6 (ATLAS),e,79.9849,213.7001,20.2027,2123,0.0000101,0.99778712,0.0000,09/29.6920/2021,2000,g  8.0,3.2
# From MPEC 2020-KB7
C/2020 H7 (Lemmon),e,135.9235,323.5194,82.6780,1405,0.0000187,0.99685380,0.0000,06/02.9510/2020,2000,g 11.0,4.0
# From MPEC 2021-N06
C/2020 H8 (PANSTARRS),e,99.7056,68.4426,128.8382,593.7492,0.0000681,0.99214284,0.0000,06/04.7482/2020,2000,g 10.5,4.0
# From MPEC 2022-ED3
A/2020 H9,e,137.8749,213.1370,312.6502,346.2719,0.0001530,0.99259814,0.0000,12/21.8815/2019,2000,g 18.0,2.0
# From MPEC 2023-HN7
C/2020 H11 (PANSTARRS-Lemmon),h,09/12.9289/2020,151.3758,303.0562,91.3751,1.000139,7.621096,2000,8.5,4.0
# From MPEC 2023-KD6
C/2020 J1 (SONEAR),e,142.3065,226.5947,341.6025,21246,0.0000003,0.99984252,0.0000,04/18.1954/2021,2000,g  8.5,3.2
# From MPEC 2025-EG2
C/2020 K1 (PANSTARRS),e,89.6712,94.3667,213.9718,2929,0.0000062,0.99895069,0.0000,05/08.8594/2023,2000,g  5.5,4.0
# From MPEC 2021-N06
C/2020 K2 (PANSTARRS),h,08/04.8257/2020,90.9911,288.4316,67.3184,1.001393,8.880290,2000,10.8,4.0
# From MPEC 2020-KF9
C/2020 K3 (Leonard),p,06/01.0032/2020,129.0152,64.4924,1.583069,28.3546,2000,14.5,4.0
# From MPEC 2020-L06
C/2020 K4 (PANSTARRS),e,125.5849,264.2763,308.8057,23.93861,0.0084150,0.92708262,15.4510,03/15.0/2025,2000,g 16.5,4.0
# From MPEC 2021-R75
C/2020 K5 (PANSTARRS),h,06/04.4807/2021,67.0678,86.1413,249.6407,1.000887,1.540166,2000,11.0,4.0
# From MPEC 2023-N01
C/2020 K6 (Rankin),h,09/14.9870/2021,103.6325,291.5967,44.2905,1.002442,5.866564,2000,8.0,4.0
# From MPEC 2023-A50
C/2020 K7 (PANSTARRS),e,32.0444,286.1299,358.1083,95.05586,0.0010635,0.93277508,2.0923,03/15.0/2025,2000,g  8.0,4.0
# From MPEC 2021-P47
C/2020 K8 (Catalina-ATLAS),h,09/15.6291/2020,31.3948,181.3458,260.1136,1.000303,0.471187,2000,15.0,3.2
# From MPEC 2021-BE3
P/2020 K9 (Lemmon-PANSTARRS),e,23.1926,166.3126,197.0959,4.206901,0.1142248,0.32027530,170.4770,03/15.0/2025,2000,g 12.5,4.0
# From MPEC 2023-C45
P/2020 M1 (PANSTARRS),e,8.5343,142.6122,72.5139,5.312691,0.0804882,0.47334223,153.6342,03/15.0/2025,2000,g 14.5,4.0
# From MPEC 2022-H30
C/2020 M3 (ATLAS),e,23.4718,71.1688,328.6582,27.29326,0.0069123,0.95332386,11.0675,03/15.0/2025,2000,g 14.5,4.0
# From MPEC 2023-N01
A/2020 M4,h,11/23.0611/2020,160.1058,348.6171,104.5009,1.000037,5.941846,2000,14.5,2.0
# From MPEC 2024-NE4
P/2020 MK4 (PANSTARRS),e,6.7823,0.6723,93.4271,6.222844,0.0634922,0.01476264,311.5696,03/15.0/2025,2000,g  8.0,4.0
# From MPEC 2023-FK0
C/2020 M5 (ATLAS),h,08/19.8045/2021,93.1798,352.0321,126.2458,1.000157,2.999719,2000,9.0,4.0
# From MPEC 2022-GA9
C/2020 N1 (PANSTARRS),h,03/13.0535/2021,29.7635,279.8597,186.8228,1.000809,1.317201,2000,12.5,4.0
# From MPEC 2021-P47
C/2020 N2 (ATLAS),e,161.0381,257.1841,331.2268,101.7830,0.0009598,0.98246204,0.0000,08/24.3495/2020,2000,g 16.0,3.2
# From MPEC 2024-JU4
C/2020 O2 (Amaral),e,71.7617,256.7937,10.1927,29477,0.0000002,0.99983520,0.0000,08/27.4540/2021,2000,g  8.0,3.2
# From MPEC 2023-C45
P/2020 O3 (PANSTARRS),e,8.4445,266.8181,81.2920,4.646522,0.0984039,0.10240342,148.4986,03/15.0/2025,2000,g 12.0,4.0
# From MPEC 2021-BE3
C/2020 P1 (NEOWISE),h,10/21.1443/2020,45.1365,53.4826,8.9249,1.000426,0.341428,2000,14.0,3.2
# From MPEC 2024-JU4
C/2020 P3 (ATLAS),h,04/22.7811/2021,61.8631,19.4812,82.3398,1.003561,6.815292,2000,6.0,4.0
# From MPEC 2022-PB4
C/2020 PV6 (PANSTARRS),e,128.1628,329.1324,71.2940,41.74385,0.0036544,0.94511015,4.6267,03/15.0/2025,2000,g 10.0,4.0
# From MPEC 2022-L66
